{
  "norad_id": 38257,
  "name": "YAOGAN-14",
  "history": [
    {
      "epoch": "2026-03-28T21:50:10.727232Z",
      "apogee_km": 489.7174786299365,
      "perigee_km": 480.7500729091471,
      "latitude_deg": 8.015275236936575e-06,
      "longitude_deg": 73.05928073645488,
      "height_km": 489.5001215998311,
      "semi_major_axis_km": 6863.370775769541,
      "eccentricity": 0.00065328,
      "inclination_deg": 97.2889,
      "raan_deg": 226.9275,
      "arg_perigee_deg": 105.1952,
      "mean_anomaly_deg": 255.001,
      "mean_motion_rev_day": 15.26850692
    },
    {
      "epoch": "2026-03-29T04:07:40.297152Z",
      "apogee_km": 489.78502944332104,
      "perigee_km": 480.7143775759632,
      "latitude_deg": -2.5473470136026357e-05,
      "longitude_deg": -21.316507613726092,
      "height_km": 489.4836079866512,
      "semi_major_axis_km": 6863.386703509642,
      "eccentricity": 0.0006608,
      "inclination_deg": 97.2889,
      "raan_deg": 227.1833,
      "arg_perigee_deg": 104.5971,
      "mean_anomaly_deg": 255.6001,
      "mean_motion_rev_day": 15.26845377
    },
    {
      "epoch": "2026-03-30T05:17:36.808224Z",
      "apogee_km": 489.6830112880416,
      "perigee_km": 480.6015201636337,
      "latitude_deg": -2.2880586541247342e-05,
      "longitude_deg": -38.81158854057979,
      "height_km": 489.170514922371,
      "semi_major_axis_km": 6863.279265725838,
      "eccentricity": 0.0006616,
      "inclination_deg": 97.2889,
      "raan_deg": 228.2072,
      "arg_perigee_deg": 101.9155,
      "mean_anomaly_deg": 258.2826,
      "mean_motion_rev_day": 15.26881229
    },
    {
      "epoch": "2026-03-30T06:51:59.018400Z",
      "apogee_km": 489.6628126286096,
      "perigee_km": 480.6034333316784,
      "latitude_deg": 4.104749295104875e-05,
      "longitude_deg": -62.40473308226014,
      "height_km": 489.154411881484,
      "semi_major_axis_km": 6863.270122980144,
      "eccentricity": 0.00065999,
      "inclination_deg": 97.2888,
      "raan_deg": 228.2712,
      "arg_perigee_deg": 101.8547,
      "mean_anomaly_deg": 258.3433,
      "mean_motion_rev_day": 15.2688428
    },
    {
      "epoch": "2026-03-30T14:43:50.097792Z",
      "apogee_km": 489.6337789304116,
      "perigee_km": 480.5775929414658,
      "latitude_deg": -3.698884797307478e-05,
      "longitude_deg": 179.63057566819293,
      "height_km": 489.03433396692407,
      "semi_major_axis_km": 6863.242685935938,
      "eccentricity": 0.00065976,
      "inclination_deg": 97.289,
      "raan_deg": 228.5923,
      "arg_perigee_deg": 100.6644,
      "mean_anomaly_deg": 259.5338,
      "mean_motion_rev_day": 15.26893436
    },
    {
      "epoch": "2026-03-30T22:35:41.135712Z",
      "apogee_km": 489.6130148669836,
      "perigee_km": 480.59046395537916,
      "latitude_deg": 6.263219623906192e-06,
      "longitude_deg": 61.66454226379625,
      "height_km": 488.9486097826106,
      "semi_major_axis_km": 6863.238739411181,
      "eccentricity": 0.00065731,
      "inclination_deg": 97.289,
      "raan_deg": 228.9119,
      "arg_perigee_deg": 99.6496,
      "mean_anomaly_deg": 260.5486,
      "mean_motion_rev_day": 15.26894753
    },
    {
      "epoch": "2026-03-31T20:36:50.992128Z",
      "apogee_km": 489.51793389225986,
      "perigee_km": 480.51484927318234,
      "latitude_deg": 6.126871296006892e-06,
      "longitude_deg": 91.36557034237751,
      "height_km": 488.6239217668953,
      "semi_major_axis_km": 6863.153391582721,
      "eccentricity": 0.0006559,
      "inclination_deg": 97.2896,
      "raan_deg": 229.8083,
      "arg_perigee_deg": 96.5945,
      "mean_anomaly_deg": 263.6041,
      "mean_motion_rev_day": 15.26923235
    },
    {
      "epoch": "2026-04-01T20:12:21.803328Z",
      "apogee_km": 489.46622792772905,
      "perigee_km": 480.4220595964798,
      "latitude_deg": 1.3207411439019047e-05,
      "longitude_deg": 97.47820610100702,
      "height_km": 488.31086415603653,
      "semi_major_axis_km": 6863.081143762104,
      "eccentricity": 0.0006589,
      "inclination_deg": 97.2903,
      "raan_deg": 230.7682,
      "arg_perigee_deg": 93.5035,
      "mean_anomaly_deg": 266.6958,
      "mean_motion_rev_day": 15.26947346
    },
    {
      "epoch": "2026-04-02T21:22:13.191744Z",
      "apogee_km": 489.40629523048665,
      "perigee_km": 480.30459465000695,
      "latitude_deg": 1.3752107323485787e-05,
      "longitude_deg": 80.00482841448803,
      "height_km": 488.04606203378256,
      "semi_major_axis_km": 6862.992444940247,
      "eccentricity": 0.0006631,
      "inclination_deg": 97.2906,
      "raan_deg": 231.7924,
      "arg_perigee_deg": 91.2638,
      "mean_anomaly_deg": 268.9361,
      "mean_motion_rev_day": 15.26976948
    },
    {
      "epoch": "2026-04-02T22:56:35.165184Z",
      "apogee_km": 489.4245412400205,
      "perigee_km": 480.30594467988976,
      "latitude_deg": -3.308477508389632e-05,
      "longitude_deg": 56.41258703399771,
      "height_km": 488.0353923636478,
      "semi_major_axis_km": 6863.002242959955,
      "eccentricity": 0.00066433,
      "inclination_deg": 97.2904,
      "raan_deg": 231.8563,
      "arg_perigee_deg": 91.0045,
      "mean_anomaly_deg": 269.1955,
      "mean_motion_rev_day": 15.26973678
    },
    {
      "epoch": "2026-04-03T20:57:40.840704Z",
      "apogee_km": 489.2709287660691,
      "perigee_km": 480.2722830020339,
      "latitude_deg": -2.778418829952581e-07,
      "longitude_deg": 86.13147770836693,
      "height_km": 487.71862420666423,
      "semi_major_axis_km": 6862.908605884051,
      "eccentricity": 0.0006556,
      "inclination_deg": 97.2908,
      "raan_deg": 232.7531,
      "arg_perigee_deg": 88.1737,
      "mean_anomaly_deg": 272.0253,
      "mean_motion_rev_day": 15.27004929
    },
    {
      "epoch": "2026-04-04T07:58:13.211904Z",
      "apogee_km": 489.21970066042013,
      "perigee_km": 480.2405997957485,
      "latitude_deg": 2.355075019861741e-05,
      "longitude_deg": -79.0077288847724,
      "height_km": 487.59225510006803,
      "semi_major_axis_km": 6862.867150228084,
      "eccentricity": 0.00065418,
      "inclination_deg": 97.2914,
      "raan_deg": 233.2009,
      "arg_perigee_deg": 87.0848,
      "mean_anomaly_deg": 273.114,
      "mean_motion_rev_day": 15.27018765
    },
    {
      "epoch": "2026-04-05T15:25:26.796000Z",
      "apogee_km": 489.1352964981552,
      "perigee_km": 480.1255808939368,
      "latitude_deg": 3.10140725743925e-05,
      "longitude_deg": 169.17460740833218,
      "height_km": 487.176050522443,
      "semi_major_axis_km": 6862.767438696045,
      "eccentricity": 0.00065642,
      "inclination_deg": 97.2917,
      "raan_deg": 234.4816,
      "arg_perigee_deg": 83.0535,
      "mean_anomaly_deg": 277.1451,
      "mean_motion_rev_day": 15.27052045
    },
    {
      "epoch": "2026-04-05T20:08:31.663968Z",
      "apogee_km": 489.11810667566897,
      "perigee_km": 480.1251477705555,
      "latitude_deg": -1.0040323779121358e-05,
      "longitude_deg": 98.40256692998686,
      "height_km": 487.0705744989568,
      "semi_major_axis_km": 6862.758627223112,
      "eccentricity": 0.0006552,
      "inclination_deg": 97.2916,
      "raan_deg": 234.6736,
      "arg_perigee_deg": 81.797,
      "mean_anomaly_deg": 278.4012,
      "mean_motion_rev_day": 15.27054986
    },
    {
      "epoch": "2026-04-06T07:09:03.032064Z",
      "apogee_km": 489.1167997010998,
      "perigee_km": 480.12768313632023,
      "latitude_deg": -4.147931751258171e-05,
      "longitude_deg": -66.73304228900743,
      "height_km": 487.05662700486505,
      "semi_major_axis_km": 6862.75924141871,
      "eccentricity": 0.00065492,
      "inclination_deg": 97.292,
      "raan_deg": 235.1208,
      "arg_perigee_deg": 81.6058,
      "mean_anomaly_deg": 278.5923,
      "mean_motion_rev_day": 15.27054781
    },
    {
      "epoch": "2026-04-07T20:53:39.934176Z",
      "apogee_km": 488.9893635243807,
      "perigee_km": 480.0692698459534,
      "latitude_deg": 5.22834667408565e-05,
      "longitude_deg": 87.10100877272858,
      "height_km": 486.5416397786104,
      "semi_major_axis_km": 6862.666316685167,
      "eccentricity": 0.0006499,
      "inclination_deg": 97.2917,
      "raan_deg": 236.6587,
      "arg_perigee_deg": 76.0059,
      "mean_anomaly_deg": 284.1903,
      "mean_motion_rev_day": 15.27085797
    },
    {
      "epoch": "2026-04-08T15:45:57.495744Z",
      "apogee_km": 488.91079464138966,
      "perigee_km": 480.06157929425717,
      "latitude_deg": 1.3294843480364315e-05,
      "longitude_deg": 164.02091131713723,
      "height_km": 486.39691913867676,
      "semi_major_axis_km": 6862.623186967823,
      "eccentricity": 0.00064474,
      "inclination_deg": 97.292,
      "raan_deg": 237.4268,
      "arg_perigee_deg": 74.528,
      "mean_anomaly_deg": 285.6671,
      "mean_motion_rev_day": 15.27100193
    },
    {
      "epoch": "2026-04-09T20:04:22.738656Z",
      "apogee_km": 488.83685204295125,
      "perigee_km": 480.00748341775034,
      "latitude_deg": 4.834396176158725e-05,
      "longitude_deg": 99.40559689384948,
      "height_km": 486.0720830736367,
      "semi_major_axis_km": 6862.559167730351,
      "eccentricity": 0.0006433,
      "inclination_deg": 97.292,
      "raan_deg": 238.5792,
      "arg_perigee_deg": 70.943,
      "mean_anomaly_deg": 289.2506,
      "mean_motion_rev_day": 15.27121562
    },
    {
      "epoch": "2026-04-10T13:22:17.728032Z",
      "apogee_km": 488.82776136026314,
      "perigee_km": 479.9901746626574,
      "latitude_deg": 3.123092160751908e-05,
      "longitude_deg": -160.079453726744,
      "height_km": 485.9825601553176,
      "semi_major_axis_km": 6862.54596801146,
      "eccentricity": 0.0006439,
      "inclination_deg": 97.2921,
      "raan_deg": 239.2837,
      "arg_perigee_deg": 69.9102,
      "mean_anomaly_deg": 290.283,
      "mean_motion_rev_day": 15.27125968
    },
    {
      "epoch": "2026-04-11T19:15:02.480256Z",
      "apogee_km": 488.7388985277894,
      "perigee_km": 479.9672637061067,
      "latitude_deg": -3.198886611605657e-05,
      "longitude_deg": 111.72439346777706,
      "height_km": 485.62968177176475,
      "semi_major_axis_km": 6862.490081116948,
      "eccentricity": 0.0006391,
      "inclination_deg": 97.2916,
      "raan_deg": 240.5011,
      "arg_perigee_deg": 65.5494,
      "mean_anomaly_deg": 294.6411,
      "mean_motion_rev_day": 15.27144623
    },
    {
      "epoch": "2026-04-13T07:25:11.191584Z",
      "apogee_km": 488.61211718019604,
      "perigee_km": 480.0216973790639,
      "latitude_deg": 3.962106270713997e-05,
      "longitude_deg": -70.8249250807331,
      "height_km": 485.4239452039164,
      "semi_major_axis_km": 6862.45390727963,
      "eccentricity": 0.0006259,
      "inclination_deg": 97.2925,
      "raan_deg": 241.9735,
      "arg_perigee_deg": 62.468,
      "mean_anomaly_deg": 297.7195,
      "mean_motion_rev_day": 15.27156698
    },
    {
      "epoch": "2026-04-14T21:09:39.833856Z",
      "apogee_km": 488.589041451045,
      "perigee_km": 479.9575018113874,
      "latitude_deg": 4.137316680161702e-05,
      "longitude_deg": 83.04345394934954,
      "height_km": 485.05937299057655,
      "semi_major_axis_km": 6862.410271631216,
      "eccentricity": 0.0006289,
      "inclination_deg": 97.2921,
      "raan_deg": 243.5112,
      "arg_perigee_deg": 57.6888,
      "mean_anomaly_deg": 302.496,
      "mean_motion_rev_day": 15.27171264
    }
  ]
}